[{"OBJECT_NAME":"KUIPER-00065","OBJECT_ID":"2025-134AB","EPOCH":"2026-03-09T16:33:07.968384","MEAN_MOTION":14.799424,"ECCENTRICITY":7.199e-5,"INCLINATION":51.9035,"RA_OF_ASC_NODE":240.6799,"ARG_OF_PERICENTER":80.086,"MEAN_ANOMALY":280.0184,"EPHEMERIS_TYPE":0,"CLASSIFICATION_TYPE":"U","NORAD_CAT_ID":64525,"ELEMENT_SET_NO":999,"REV_AT_EPOCH":3995,"BSTAR":0.00062633885,"MEAN_MOTION_DOT":4.558e-5,"MEAN_MOTION_DDOT":0},{"OBJECT_NAME":"TITAN 3C TRANSTAGE DEB","OBJECT_ID":"1965-082AF","EPOCH":"2026-03-09T01:14:43.860192","MEAN_MOTION":14.82280461,"ECCENTRICITY":0.00143376,"INCLINATION":32.0679,"RA_OF_ASC_NODE":67.4525,"ARG_OF_PERICENTER":138.4883,"MEAN_ANOMALY":221.6857,"EPHEMERIS_TYPE":0,"CLASSIFICATION_TYPE":"U","NORAD_CAT_ID":1668,"ELEMENT_SET_NO":999,"REV_AT_EPOCH":20347,"BSTAR":0.00029021131,"MEAN_MOTION_DOT":2.413e-5,"MEAN_MOTION_DDOT":0}]
